*******************************************************************************
JPL/HORIZONS                 15493 (1999 CS105)            2013-Sep-09 10:31:44
Rec #: 15493 (+COV)   Soln.date: 2013-Aug-26_20:16:07    # obs: 626 (1990-2013)
 
FK5/J2000.0 helio. ecliptic osc. elements (au, days, deg., period=Julian yrs): 
 
  EPOCH=  2454913.5 ! 2009-Mar-23.00 (CT)          Residual RMS= .34245        
   EC= .06550951201222584  QR= 3.024152677156601   TP= 2453962.5081503368      
   OM= 311.9396822535252   W=  293.4050832535657   IN= 11.99184670379184       
   A= 3.236151374497635    MA= 161.0043562500281   ADIST= 3.448150071838669    
   PER= 5.82172            N= .169301505           ANGMOM= .03087891           
   DAN= 3.14054            DDN= 3.30835            L= 245.8091108              
   B= -10.9922862          MOID= 2.03430009        TP= 2006-Aug-15.0081503368  
 
Asteroid physical parameters (km, seconds, rotational period in hours):        
   GM= n.a.                RAD= n.a.               ROTPER= n.a.                
   H= 12.8                 G= .150                 B-V= n.a.                   
                           ALBEDO= n.a.            STYP= n.a.                  
 
ASTEROID comments: 
1: soln ref.= JPL#4, OCC=0
2: source=ORB
*******************************************************************************
 

 

*******************************************************************************
Ephemeris / WWW_USER Mon Sep  9 10:31:44 2013 Pasadena, USA      / Horizons    
*******************************************************************************
Target body name: 15493 (1999 CS105)              {source: JPL#4}
Center body name: Earth (399)                     {source: DE-0431LE-0431}
Center-site name: San Pedro Martir
*******************************************************************************
Start time      : A.D. 2013-Jan-01 00:00:00.0000 UT      
Stop  time      : A.D. 2013-Dec-31 00:00:00.0000 UT      
Step-size       : 1440 minutes
*******************************************************************************
Target pole/equ : No model available
Target radii    : (unavailable)                                                
Center geodetic : 244.536700,31.0434585,2.8281109 {E-lon(deg),Lat(deg),Alt(km)}
Center cylindric: 244.536700,5471.93108,3271.4810 {E-lon(deg),Dxy(km),Dz(km)}
Center pole/equ : High-precision EOP model        {East-longitude +}
Center radii    : 6378.1 x 6378.1 x 6356.8 km     {Equator, meridian, pole}    
Target primary  : Sun
Vis. interferer : MOON (R_eq= 1737.400) km        {source: DE-0431LE-0431}
Rel. light bend : Sun, EARTH                      {source: DE-0431LE-0431}
Rel. lght bnd GM: 1.3271E+11, 3.9860E+05 km^3/s^2                              
Small-body perts: Yes                             {source: SB431-BIG16}
Atmos refraction: NO (AIRLESS)
RA format       : DEG
Time format     : BOTH
EOP file        : eop.130906.p131128                                           
EOP coverage    : DATA-BASED 1962-JAN-20 TO 2013-SEP-06. PREDICTS-> 2013-NOV-27
Units conversion: 1 au= 149597870.700 km, c= 299792.458 km/s, 1 day= 86400.0 s 
Table cut-offs 1: Elevation (-90.0deg=NO ),Airmass (>38.000=NO), Daylight (NO )
Table cut-offs 2: Solar Elongation (  0.0,180.0=NO ),Local Hour Angle( 0.0=NO )
*******************************************************************************
Initial FK5/J2000.0 heliocentric ecliptic osculating elements (au, days, deg.):
  EPOCH=  2454913.5 ! 2009-Mar-23.00 (CT)          Residual RMS= .34245        
   EC= .06550951201222584  QR= 3.024152677156601   TP= 2453962.5081503368      
   OM= 311.9396822535252   W=  293.4050832535657   IN= 11.99184670379184       
Asteroid physical parameters (km, seconds, rotational period in hours):        
   GM= n.a.                RAD= n.a.               ROTPER= n.a.                
   H= 12.8                 G= .150                 B-V= n.a.                   
                           ALBEDO= n.a.            STYP= n.a.                  
************************************************************************************************************
 Date__(UT)__HR:MN Date_________JDUT     R.A._(J2000.0)_DEC. dRA*cosD d(DEC)/dt            delta      deldot
************************************************************************************************************
$$SOE
 2013-Jul-24 00:00 2456497.500000000 *   331.07165  -8.92785 -22.1902  0.756606 2.25201733529586 -10.6062439
 2013-Jul-25 00:00 2456498.500000000 *   330.91511  -8.92287 -22.7746  0.550133 2.24614119939216 -10.2008298
 2013-Jul-26 00:00 2456499.500000000 *   330.75474  -8.91923 -23.3433  0.347043 2.24050458695260  -9.7894254
 2013-Jul-27 00:00 2456500.500000000 *   330.59064  -8.91692 -23.8954  0.147637 2.23511092957339  -9.3719898
 2013-Jul-28 00:00 2456501.500000000 *   330.42295  -8.91591 -24.4297  -0.04777 2.22996366188133  -8.9485456
 2013-Jul-29 00:00 2456502.500000000 *   330.25177  -8.91617 -24.9453  -0.23885 2.22506618501007  -8.5191764
 2013-Jul-30 00:00 2456503.500000000 *   330.07725  -8.91767 -25.4411  -0.42530 2.22042183461922  -8.0840153
 2013-Jul-31 00:00 2456504.500000000 *   329.89953  -8.92038 -25.9159  -0.60684 2.21603385571410  -7.6432329
 2013-Aug-01 00:00 2456505.500000000 *   329.71875  -8.92426 -26.3690  -0.78317 2.21190538374830  -7.1970285
 2013-Aug-02 00:00 2456506.500000000 *   329.53506  -8.92929 -26.7992  -0.95403 2.20803943022090  -6.7456233
 2013-Aug-03 00:00 2456507.500000000 *   329.34863  -8.93541 -27.2058  -1.11918 2.20443887077819  -6.2892583
 2013-Aug-04 00:00 2456508.500000000 *m  329.15961  -8.94261 -27.5879  -1.27836 2.20110643416960  -5.8281934
 2013-Aug-05 00:00 2456509.500000000 *m  328.96819  -8.95082 -27.9446  -1.43136 2.19804469095987  -5.3627089
 2013-Aug-06 00:00 2456510.500000000 *m  328.77452  -8.96002 -28.2753  -1.57796 2.19525604148181  -4.8931066
 2013-Aug-07 00:00 2456511.500000000 *m  328.57880  -8.97015 -28.5791  -1.71795 2.19274270308190  -4.4197108
 2013-Aug-08 00:00 2456512.500000000 *m  328.38122  -8.98119 -28.8555  -1.85117 2.19050669717045  -3.9428683
 2013-Aug-09 00:00 2456513.500000000 *m  328.18194  -8.99307 -29.1038  -1.97745 2.18854983691200  -3.4629460
 2013-Aug-10 00:00 2456514.500000000 *m  327.98119  -9.00575 -29.3237  -2.09668 2.18687371649263  -2.9803276
 2013-Aug-11 00:00 2456515.500000000 *m  327.77913  -9.01919 -29.5148  -2.20875 2.18547970283029  -2.4954089
 2013-Aug-12 00:00 2456516.500000000 *m  327.57598  -9.03334 -29.6767  -2.31360 2.18436893042106  -2.0085915
 2013-Aug-13 00:00 2456517.500000000 *m  327.37194  -9.04816 -29.8095  -2.41120 2.18354229990801  -1.5202761
 2013-Aug-14 00:00 2456518.500000000 *m  327.16719  -9.06358 -29.9130  -2.50156 2.18300048107923  -1.0308542
 2013-Aug-15 00:00 2456519.500000000 *m  326.96194  -9.07957 -29.9874  -2.58472 2.18274392136260  -0.5406968
 2013-Aug-16 00:00 2456520.500000000 *m  326.75639  -9.09608 -30.0329  -2.66075 2.18277286131043  -0.0501415
 2013-Aug-17 00:00 2456521.500000000 *m  326.55073  -9.11306 -30.0499  -2.72976 2.18308735855867   0.4405234
 2013-Aug-18 00:00 2456522.500000000 *m  326.34516  -9.13047 -30.0389  -2.79185 2.18368732064757   0.9310729
 2013-Aug-19 00:00 2456523.500000000 *   326.13986  -9.14825 -30.0001  -2.84715 2.18457254444428   1.4213532
 2013-Aug-20 00:00 2456524.500000000 *   325.93502  -9.16638 -29.9341  -2.89572 2.18574275621693   1.9112752
 2013-Aug-21 00:00 2456525.500000000 *   325.73083  -9.18479 -29.8411  -2.93762 2.18719764353798   2.4007924
 2013-Aug-22 00:00 2456526.500000000 *   325.52746  -9.20346 -29.7212  -2.97284 2.18893687062865   2.8898675
 2013-Aug-23 00:00 2456527.500000000 *   325.32510  -9.22232 -29.5744  -3.00134 2.19096007340262   3.3784375
 2013-Aug-24 00:00 2456528.500000000 *   325.12393  -9.24135 -29.4007  -3.02306 2.19326683719537   3.8663900
 2013-Aug-25 00:00 2456529.500000000 *   324.92414  -9.26049 -29.1999  -3.03792 2.19585666514016   4.3535546
 2013-Aug-26 00:00 2456530.500000000 *   324.72591  -9.27971 -28.9721  -3.04587 2.19872894600164   4.8397092
 2013-Aug-27 00:00 2456531.500000000 *   324.52943  -9.29894 -28.7173  -3.04686 2.20188292765077   5.3245918
 2013-Aug-28 00:00 2456532.500000000 *   324.33486  -9.31816 -28.4356  -3.04090 2.20531769860863   5.8079158
 2013-Aug-29 00:00 2456533.500000000 *   324.14240  -9.33731 -28.1272  -3.02797 2.20903217713234   6.2893806
 2013-Aug-30 00:00 2456534.500000000 *   323.95223  -9.35634 -27.7925  -3.00813 2.21302510580790   6.7686795
 2013-Aug-31 00:00 2456535.500000000 *   323.76453  -9.37522 -27.4317  -2.98141 2.21729504927813   7.2455033
 2013-Sep-01 00:00 2456536.500000000 *   323.57946  -9.39389 -27.0453  -2.94788 2.22184039304603   7.7195404
 2013-Sep-02 00:00 2456537.500000000 *   323.39719  -9.41232 -26.6338  -2.90761 2.22665934186861   8.1904753
 2013-Sep-03 00:00 2456538.500000000 *m  323.21791  -9.43046 -26.1976  -2.86069 2.23174991691640   8.6579864
 2013-Sep-04 00:00 2456539.500000000 *m  323.04177  -9.44826 -25.7373  -2.80723 2.23710995157191   9.1217433
 2013-Sep-05 00:00 2456540.500000000 *m  322.86894  -9.46568 -25.2536  -2.74734 2.24273708645941   9.5814071
 2013-Sep-06 00:00 2456541.500000000 *m  322.69956  -9.48269 -24.7472  -2.68116 2.24862876497412  10.0366325
 2013-Sep-07 00:00 2456542.500000000 *m  322.53379  -9.49923 -24.2188  -2.60885 2.25478223106842  10.4870730
 2013-Sep-08 00:00 2456543.500000000 *m  322.37178  -9.51528 -23.6694  -2.53062 2.26119453117423  10.9323901
 2013-Sep-09 00:00 2456544.500000000 *m  322.21367  -9.53079 -23.1000  -2.44667 2.26786252179711  11.3722635
 2013-Sep-10 00:00 2456545.500000000 *m  322.05957  -9.54572 -22.5116  -2.35724 2.27478288358378  11.8064032
 2013-Sep-11 00:00 2456546.500000000 *m  321.90963  -9.56005 -21.9054  -2.26261 2.28195214180390  12.2345594
 2013-Sep-12 00:00 2456547.500000000 *m  321.76395  -9.57373 -21.2825  -2.16303 2.28936669250027  12.6565320
